CTC1_L_00129001-01
1 10000U 22915YF  26075.70031250  .00000000  00000+0  00000-0 0  9997
2 10000  90.0000   0.0000 0000000   0.0000   0.0000 14.24551792    13
CTC1_L_00129001-02
1 10001U 24923AQ  26075.70031250  .00000000  00000+0  00000-0 0  9999
2 10001  90.0000   0.0000 0000000   0.0000  90.0000 14.24551792    13
CTC1_L_00129001-03
1 10002U 23330KT  26075.70031250  .00000000  00000+0  00000-0 0  9991
2 10002  90.0000   0.0000 0000000   0.0000 180.0000 14.24551792    14
CTC1_L_00129001-04
1 10003U 24281LG  26075.70031250  .00000000  00000+0  00000-0 0  9998
2 10003  90.0000   0.0000 0000000   0.0000 270.0000 14.24551792    15
CTC1_L_00129002-01
1 10004U 23174MK  26075.70031250  .00000000  00000+0  00000-0 0  9999
2 10004  90.0000  12.0000 0000000   0.0000  12.0000 14.24551792    13
CTC1_L_00129002-02
1 10005U 22250IM  26075.70031250  .00000000  00000+0  00000-0 0  9994
2 10005  90.0000  12.0000 0000000   0.0000 102.0000 14.24551792    14
CTC1_L_00129002-03
1 10006U 26933LS  26075.70031250  .00000000  00000+0  00000-0 0  9997
2 10006  90.0000  12.0000 0000000   0.0000 192.0000 14.24551792    14
CTC1_L_00129002-04
1 10007U 26773OT  26075.70031250  .00000000  00000+0  00000-0 0  9990
2 10007  90.0000  12.0000 0000000   0.0000 282.0000 14.24551792    15
CTC1_L_00129003-01
1 10008U 26792SG  26075.70031250  .00000000  00000+0  00000-0 0  9992
2 10008  90.0000  24.0000 0000000   0.0000  24.0000 14.24551792    13
CTC1_L_00129003-02
1 10009U 26940AF  26075.70031250  .00000000  00000+0  00000-0 0  9998
2 10009  90.0000  24.0000 0000000   0.0000 114.0000 14.24551792    14
CTC1_L_00129003-03
1 10010U 26929BY  26075.70031250  .00000000  00000+0  00000-0 0  9997
2 10010  90.0000  24.0000 0000000   0.0000 204.0000 14.24551792    16
CTC1_L_00129003-04
1 10011U 23415QP  26075.70031250  .00000000  00000+0  00000-0 0  9995
2 10011  90.0000  24.0000 0000000   0.0000 294.0000 14.24551792    16
CTC1_L_00129004-01
1 10012U 24846GR  26075.70031250  .00000000  00000+0  00000-0 0  9995
2 10012  90.0000  36.0000 0000000   0.0000  36.0000 14.24551792    14
CTC1_L_00129004-02
1 10013U 26549JQ  26075.70031250  .00000000  00000+0  00000-0 0  9998
2 10013  90.0000  36.0000 0000000   0.0000 126.0000 14.24551792    15
CTC1_L_00129004-03
1 10014U 23768YG  26075.70031250  .00000000  00000+0  00000-0 0  9999
2 10014  90.0000  36.0000 0000000   0.0000 216.0000 14.24551792    16
CTC1_L_00129004-04
1 10015U 23064BA  26075.70031250  .00000000  00000+0  00000-0 0  9999
2 10015  90.0000  36.0000 0000000   0.0000 306.0000 14.24551792    17
CTC1_L_00129005-01
1 10016U 26895NV  26075.70031250  .00000000  00000+0  00000-0 0  9995
2 10016  90.0000  48.0000 0000000   0.0000  48.0000 14.24551792    14
CTC1_L_00129005-02
1 10017U 22894PQ  26075.70031250  .00000000  00000+0  00000-0 0  9991
2 10017  90.0000  48.0000 0000000   0.0000 138.0000 14.24551792    15
CTC1_L_00129005-03
1 10018U 25307HO  26075.70031250  .00000000  00000+0  00000-0 0  9994
2 10018  90.0000  48.0000 0000000   0.0000 228.0000 14.24551792    16
CTC1_L_00129005-04
1 10019U 26919VP  26075.70031250  .00000000  00000+0  00000-0 0  9995
2 10019  90.0000  48.0000 0000000   0.0000 318.0000 14.24551792    17
CTC1_L_00129006-01
1 10020U 26647RE  26075.70031250  .00000000  00000+0  00000-0 0  9995
2 10020  90.0000  60.0000 0000000   0.0000  60.0000 14.24551792    17
CTC1_L_00129006-02
1 10021U 23642XT  26075.70031250  .00000000  00000+0  00000-0 0  9998
2 10021  90.0000  60.0000 0000000   0.0000 150.0000 14.24551792    18
CTC1_L_00129006-03
1 10022U 23042IJ  26075.70031250  .00000000  00000+0  00000-0 0  9993
2 10022  90.0000  60.0000 0000000   0.0000 240.0000 14.24551792    19
CTC1_L_00129006-04
1 10023U 23191NZ  26075.70031250  .00000000  00000+0  00000-0 0  9999
2 10023  90.0000  60.0000 0000000   0.0000 330.0000 14.24551792    10
CTC1_L_00129007-01
1 10024U 22257AN  26075.70031250  .00000000  00000+0  00000-0 0  9992
2 10024  90.0000  72.0000 0000000   0.0000  72.0000 14.24551792    17
CTC1_L_00129007-02
1 10025U 24163TD  26075.70031250  .00000000  00000+0  00000-0 0  9991
2 10025  90.0000  72.0000 0000000   0.0000 162.0000 14.24551792    18
CTC1_L_00129007-03
1 10026U 23632LA  26075.70031250  .00000000  00000+0  00000-0 0  9992
2 10026  90.0000  72.0000 0000000   0.0000 252.0000 14.24551792    19
CTC1_L_00129007-04
1 10027U 26333D   26075.70031250  .00000000  00000+0  00000-0 0  9994
2 10027  90.0000  72.0000 0000000   0.0000 342.0000 14.24551792    10
CTC1_L_00129008-01
1 10028U 23502ZW  26075.70031250  .00000000  00000+0  00000-0 0  9990
2 10028  90.0000  84.0000 0000000   0.0000  84.0000 14.24551792    17
CTC1_L_00129008-02
1 10029U 25962ZA  26075.70031250  .00000000  00000+0  00000-0 0  9993
2 10029  90.0000  84.0000 0000000   0.0000 174.0000 14.24551792    18
CTC1_L_00129008-03
1 10030U 22051RN  26075.70031250  .00000000  00000+0  00000-0 0  9991
2 10030  90.0000  84.0000 0000000   0.0000 264.0000 14.24551792    10
CTC1_L_00129008-04
1 10031U 25653QS  26075.70031250  .00000000  00000+0  00000-0 0  9993
2 10031  90.0000  84.0000 0000000   0.0000 354.0000 14.24551792    11
CTC1_L_00129009-01
1 10032U 25009HD  26075.70031250  .00000000  00000+0  00000-0 0  9999
2 10032  90.0000  96.0000 0000000   0.0000  96.0000 14.24551792    18
CTC1_L_00129009-02
1 10033U 26526SD  26075.70031250  .00000000  00000+0  00000-0 0  9995
2 10033  90.0000  96.0000 0000000   0.0000 186.0000 14.24551792    19
CTC1_L_00129009-03
1 10034U 25336IX  26075.70031250  .00000000  00000+0  00000-0 0  9994
2 10034  90.0000  96.0000 0000000   0.0000 276.0000 14.24551792    10
CTC1_L_00129009-04
1 10035U 22443WV  26075.70031250  .00000000  00000+0  00000-0 0  9991
2 10035  90.0000  96.0000 0000000   0.0000   6.0000 14.24551792    12
CTC1_L_00129010-01
1 10036U 26180HL  26075.70031250  .00000000  00000+0  00000-0 0  9994
2 10036  90.0000 108.0000 0000000   0.0000 108.0000 14.24551792    10
CTC1_L_00129010-02
1 10037U 26744CO  26075.70031250  .00000000  00000+0  00000-0 0  9991
2 10037  90.0000 108.0000 0000000   0.0000 198.0000 14.24551792    10
CTC1_L_00129010-03
1 10038U 24837E   26075.70031250  .00000000  00000+0  00000-0 0  9993
2 10038  90.0000 108.0000 0000000   0.0000 288.0000 14.24551792    11
CTC1_L_00129010-04
1 10039U 25191DC  26075.70031250  .00000000  00000+0  00000-0 0  9998
2 10039  90.0000 108.0000 0000000   0.0000  18.0000 14.24551792    13
CTC1_L_00129011-01
1 10040U 26782S   26075.70031250  .00000000  00000+0  00000-0 0  9997
2 10040  90.0000 120.0000 0000000   0.0000 120.0000 14.24551792    13
CTC1_L_00129011-02
1 10041U 25825OJ  26075.70031250  .00000000  00000+0  00000-0 0  9995
2 10041  90.0000 120.0000 0000000   0.0000 210.0000 14.24551792    14
CTC1_L_00129011-03
1 10042U 22419ST  26075.70031250  .00000000  00000+0  00000-0 0  9992
2 10042  90.0000 120.0000 0000000   0.0000 300.0000 14.24551792    15
CTC1_L_00129011-04
1 10043U 26962HG  26075.70031250  .00000000  00000+0  00000-0 0  9990
2 10043  90.0000 120.0000 0000000   0.0000  30.0000 14.24551792    16
CTC1_L_00129012-01
1 10044U 23145JY  26075.70031250  .00000000  00000+0  00000-0 0  9991
2 10044  90.0000 132.0000 0000000   0.0000 132.0000 14.24551792    13
CTC1_L_00129012-02
1 10045U 26297FG  26075.70031250  .00000000  00000+0  00000-0 0  9993
2 10045  90.0000 132.0000 0000000   0.0000 222.0000 14.24551792    14
CTC1_L_00129012-03
1 10046U 25580BE  26075.70031250  .00000000  00000+0  00000-0 0  9998
2 10046  90.0000 132.0000 0000000   0.0000 312.0000 14.24551792    15
CTC1_L_00129012-04
1 10047U 24053MY  26075.70031250  .00000000  00000+0  00000-0 0  9993
2 10047  90.0000 132.0000 0000000   0.0000  42.0000 14.24551792    16
CTC1_L_00129013-01
1 10048U 22273MI  26075.70031250  .00000000  00000+0  00000-0 0  9996
2 10048  90.0000 144.0000 0000000   0.0000 144.0000 14.24551792    13
CTC1_L_00129013-02
1 10049U 23286SM  26075.70031250  .00000000  00000+0  00000-0 0  9992
2 10049  90.0000 144.0000 0000000   0.0000 234.0000 14.24551792    14
CTC1_L_00129013-03
1 10050U 22503EI  26075.70031250  .00000000  00000+0  00000-0 0  9995
2 10050  90.0000 144.0000 0000000   0.0000 324.0000 14.24551792    16
CTC1_L_00129013-04
1 10051U 25120HT  26075.70031250  .00000000  00000+0  00000-0 0  9994
2 10051  90.0000 144.0000 0000000   0.0000  54.0000 14.24551792    17
CTC1_L_00129014-01
1 10052U 26327SV  26075.70031250  .00000000  00000+0  00000-0 0  9995
2 10052  90.0000 156.0000 0000000   0.0000 156.0000 14.24551792    14
CTC1_L_00129014-02
1 10053U 23386BR  26075.70031250  .00000000  00000+0  00000-0 0  9998
2 10053  90.0000 156.0000 0000000   0.0000 246.0000 14.24551792    15
CTC1_L_00129014-03
1 10054U 26663QP  26075.70031250  .00000000  00000+0  00000-0 0  9990
2 10054  90.0000 156.0000 0000000   0.0000 336.0000 14.24551792    16
CTC1_L_00129014-04
1 10055U 25871HP  26075.70031250  .00000000  00000+0  00000-0 0  9991
2 10055  90.0000 156.0000 0000000   0.0000  66.0000 14.24551792    17
CTC1_L_00129015-01
1 10056U 26878AO  26075.70031250  .00000000  00000+0  00000-0 0  9990
2 10056  90.0000 168.0000 0000000   0.0000 168.0000 14.24551792    14
CTC1_L_00129015-02
1 10057U 23174YM  26075.70031250  .00000000  00000+0  00000-0 0  9997
2 10057  90.0000 168.0000 0000000   0.0000 258.0000 14.24551792    15
CTC1_L_00129015-03
1 10058U 22259YY  26075.70031250  .00000000  00000+0  00000-0 0  9991
2 10058  90.0000 168.0000 0000000   0.0000 348.0000 14.24551792    16
CTC1_L_00129015-04
1 10059U 24152BA  26075.70031250  .00000000  00000+0  00000-0 0  9996
2 10059  90.0000 168.0000 0000000   0.0000  78.0000 14.24551792    17
CTC1_L_00129016-01
1 10060U 24294TI  26075.70031250  .00000000  00000+0  00000-0 0  9995
2 10060  90.0000 180.0000 0000000   0.0000 180.0000 14.24551792    17
CTC1_L_00129016-02
1 10061U 24022KT  26075.70031250  .00000000  00000+0  00000-0 0  9995
2 10061  90.0000 180.0000 0000000   0.0000 270.0000 14.24551792    18
